COSMOS 2419 (714)       
1 28915U 05050A   16333.77291241 -.00000041  00000-0  00000+0 0  9999
2 28915  65.3992  72.6094 0014271 354.3379  51.3335  2.13106812 85061
COSMOS 2425 (716)       
1 29670U 06062A   16334.13616751 -.00000037  00000-0  10000-3 0  9990
2 29670  65.5594 311.6046 0021770 338.0335  41.8637  2.13104918 77274
COSMOS 2426 (717)       
1 29671U 06062B   16334.46890736 -.00000035  00000-0  10000-3 0  9992
2 29671  65.5766 311.6786 0017113 174.6924 320.1999  2.13103023 77282
COSMOS 2424 (715)       
1 29672U 06062C   16334.15331995 -.00000037  00000-0  10000-3 0  9998
2 29672  65.5612 311.6144 0016441 173.9107 254.7891  2.13102132 77271
COSMOS 2433 (720)       
1 32275U 07052A   16333.73172716 -.00000041  00000-0  10000-3 0  9993
2 32275  65.4144  72.3860 0002407 228.3489  33.4219  2.13104890 70771
COSMOS 2432 (719)       
1 32276U 07052B   16333.71544583 -.00000041  00000-0  10000-3 0  9997
2 32276  65.4268  72.4555 0010010 336.8178 225.8681  2.13104023 70778
COSMOS 2434 (721)       
1 32393U 07065A   16333.59678267 -.00000040  00000-0  00000+0 0  9998
2 32393  65.1769 310.8677 0002006 153.6389 255.4448  2.13102812 69480
COSMOS 2436 (723)       
1 32395U 07065C   16333.54160755 -.00000040  00000-0  10000-3 0  9998
2 32395  65.1978 310.9080 0031456  31.0415  59.8875  2.12349652 69410
COSMOS 2443 (725)       
1 33379U 08046B   16333.86875815 -.00000041  00000-0  00000+0 0  9992
2 33379  65.3440  71.7833 0017095 182.8743  86.9047  2.13100666 63641
COSMOS 2456 (730)       
1 36111U 09070A   16333.83188846  .00000088  00000-0  00000+0 0  9995
2 36111  64.1783 190.4293 0003621 336.2668  63.4897  2.13102958 54150
COSMOS 2457 (733)       
1 36112U 09070B   16334.33045472  .00000087  00000-0  00000+0 0  9998
2 36112  64.1605 190.3361 0006963 152.6822  39.0547  2.13101685 54161
COSMOS 2458 (734)       
1 36113U 09070C   16334.14389978  .00000088  00000-0  10000-3 0  9996
2 36113  64.1656 190.3489 0002376  51.2151  45.0679  2.13101896 54169
COSMOS 2459 (731)       
1 36400U 10007A   16333.73854679 -.00000042  00000-0  10000-3 0  9997
2 36400  65.3233  71.5159 0026352 353.8120 137.0629  2.13102136 52504
COSMOS 2461 (735)       
1 36401U 10007B   16334.38501655 -.00000036  00000-0  10000-3 0  9996
2 36401  65.3174  71.4745 0006672  82.7240  94.7004  2.13102129 52512
COSMOS 2460 (732)       
1 36402U 10007C   16333.76922185 -.00000042  00000-0  10000-3 0  9990
2 36402  65.3066  71.4700 0001394 152.9343 313.6721  2.13101821 52500
COSMOS 2465 (737)       
1 37138U 10041B   16334.06245840 -.00000039  00000-0  00000+0 0  9996
2 37138  64.7757 310.9407 0035448 176.0950 273.5582  2.13103371 48584
COSMOS 2464 (736)       
1 37139U 10041C   16334.42469008 -.00000037  00000-0  00000+0 0  9999
2 37139  64.7833 310.9258 0022022   5.2430 186.6926  2.13102582 48594
COSMOS 2471 (701K)      
1 37372U 11009A   16333.56801708 -.00000044  00000-0  00000+0 0  9992
2 37372  65.3035  71.4249 0008121 226.4048 218.9871  2.13102803 44779
COSMOS 2474 (742)       
1 37829U 11055A   16333.63314317  .00000089  00000-0  00000-0 0  9992
2 37829  64.5024 190.9174 0006546 247.0171 220.9380  2.13101926 40144
COSMOS 2476 (744)       
1 37867U 11064A   16334.15073002  .00000088  00000-0  00000+0 0  9993
2 37867  64.4822 190.9775 0015729 243.0826 307.8283  2.13101974 39502
COSMOS 2477 (745)       
1 37868U 11064B   16334.08268059  .00000088  00000-0  00000+0 0  9994
2 37868  64.4914 191.0217 0013737 244.3623  73.5907  2.13101909 39456
COSMOS 2475 (743)       
1 37869U 11064C   16333.86189465  .00000088  00000-0  00000-0 0  9994
2 37869  64.4974 191.0182 0018767 274.3113 190.5444  2.13102158 39463
COSMOS 2485 (747)       
1 39155U 13019A   16333.78795801  .00000089  00000-0  00000+0 0  9994
2 39155  64.6519 190.9755 0016135 237.3785  80.3270  2.13102049 27969
COSMOS 2492 (754)       
1 39620U 14012A   16334.13515397 -.00000039  00000-0  10000-3 0  9996
2 39620  65.1964  71.4220 0013824 330.7744 286.9528  2.13103548 20925
COSMOS 2500 (755)       
1 40001U 14032A   16334.46322191 -.00000036  00000-0  00000+0 0  9999
2 40001  65.1364  71.4231 0007001 196.5799 176.2805  2.13102775 19157
COSMOS 2501 (702K)      
1 40315U 14075A   16333.76353719 -.00000041  00000-0  00000+0 0  9992
2 40315  64.5099 312.3597 0015936 215.9510 148.4148  2.13099975 15545
COSMOS 2514 (751)       
1 41330U 16008A   16333.68957198 -.00000043  00000-0  00000-0 0  9993
2 41330  64.9369  71.6445 0009994 208.3768 110.4315  2.13103383  6298
COSMOS 2516 (753)       
1 41554U 16032A   16334.00845389 -.00000039  00000-0  00000+0 0  9997
2 41554  64.7291 312.0617 0013859 230.8457 226.3538  2.13101592  3911
